UNKNOWN                 
1 82524U          25306.62953226  .00009503  00000+0  30889-2 0  9998
2 82524  73.2810 258.5657 0135540  26.3092 155.9260 14.33807887571282
UNKNOWN                 
1 82529U          25306.52481247  .00000267  00000+0  47837-3 0  9991
2 82529  99.7923  31.1853 0234724 338.8177  31.8350 13.41053874584358
UNKNOWN                 
1 82560U          25301.07854564  .00001809  00000+0  14952-2 0  9991
2 82560  99.9836 240.2747 0011981  58.1321 319.3804 13.90445136605525
UNKNOWN                 
1 82597U          25305.11974365  .00003403  00000+0  11508-2 0  9998
2 82597  66.7704 257.5574 0095310 336.2764  23.3956 14.35482820623003
UNKNOWN                 
1 82617U          25302.76369301  .00000895  00000+0  23959-3 0  9993
2 82617  74.0272 326.1798 0040091 280.5269  79.1375 14.49299104630453
UNKNOWN                 
1 82627U          25302.89885696  .00000699  00000+0  18072-2 0  9999
2 82627  82.4734 279.9007 0008319 208.0711 180.5201 13.16211052573069
UNKNOWN                 
1 82642U          25301.70487147  .00003096  00000+0  17268-2 0  9994
2 82642  98.9704 212.5670 0138374   3.2692 356.9349 14.06910870609800
UNKNOWN                 
1 82683U          25303.42791594  .00002506  00000+0  95653-3 0  9994
2 82683  98.1777  15.6224 0211940 162.4940 198.3691 14.19950345456127
UNKNOWN                 
1 82693U          25298.62987414  .00003434  00000+0  40035-2 0  9992
2 82693 100.5306 257.7353 0038060 140.4369 219.9562 13.69135328547170
UNKNOWN                 
1 82698U          25304.60572424  .00001918  00000+0  11704-2 0  9990
2 82698  61.6124 263.2711 0685300 273.8851  78.4129 13.29243009532771
UNKNOWN                 
1 82708U          25296.48286510  .00001233  00000+0  48438-2 0  9990
2 82708 102.1689 134.7870 0061886  26.2431 334.1775 12.90441701517036
UNKNOWN                 
1 82729U          25306.49656486  .00001279  00000+0  44300-2 0  9993
2 82729  67.9677 215.4580 0828084  38.4771 327.2389 12.17693753530306
