CCSDS_OMM_VERS = 2.0
CREATION_DATE  = 
ORIGINATOR     = 

OBJECT_NAME    = UNKNOWN
OBJECT_ID      = 
CENTER_NAME    = EARTH
REF_FRAME      = TEME
TIME_SYSTEM    = UTC
MEAN_ELEMENT_THEORY = SGP/SGP4

EPOCH          = 2025-11-02T15:06:31.587264
MEAN_MOTION    = 14.33807887
ECCENTRICITY   = .013554
INCLINATION    = 73.2810
RA_OF_ASC_NODE = 258.5657
ARG_OF_PERICENTER = 26.3092
MEAN_ANOMALY   = 155.9260

EPHEMERIS_TYPE = 0
CLASSIFICATION_TYPE = U
NORAD_CAT_ID   = 82524
ELEMENT_SET_NO = 999
REV_AT_EPOCH   = 57128
BSTAR          = .30889E-2
MEAN_MOTION_DOT = .9503E-4
MEAN_MOTION_DDOT = 0

CCSDS_OMM_VERS = 2.0
CREATION_DATE  = 
ORIGINATOR     = 

OBJECT_NAME    = UNKNOWN
OBJECT_ID      = 
CENTER_NAME    = EARTH
REF_FRAME      = TEME
TIME_SYSTEM    = UTC
MEAN_ELEMENT_THEORY = SGP/SGP4

EPOCH          = 2025-11-02T12:35:43.797408
MEAN_MOTION    = 13.41053874
ECCENTRICITY   = .0234724
INCLINATION    = 99.7923
RA_OF_ASC_NODE = 31.1853
ARG_OF_PERICENTER = 338.8177
MEAN_ANOMALY   = 31.8350

EPHEMERIS_TYPE = 0
CLASSIFICATION_TYPE = U
NORAD_CAT_ID   = 82529
ELEMENT_SET_NO = 999
REV_AT_EPOCH   = 58435
BSTAR          = .47837E-3
MEAN_MOTION_DOT = .267E-5
MEAN_MOTION_DDOT = 0

CCSDS_OMM_VERS = 2.0
CREATION_DATE  = 
ORIGINATOR     = 

OBJECT_NAME    = UNKNOWN
OBJECT_ID      = 
CENTER_NAME    = EARTH
REF_FRAME      = TEME
TIME_SYSTEM    = UTC
MEAN_ELEMENT_THEORY = SGP/SGP4

EPOCH          = 2025-10-28T01:53:06.343296
MEAN_MOTION    = 13.90445136
ECCENTRICITY   = .0011981
INCLINATION    = 99.9836
RA_OF_ASC_NODE = 240.2747
ARG_OF_PERICENTER = 58.1321
MEAN_ANOMALY   = 319.3804

EPHEMERIS_TYPE = 0
CLASSIFICATION_TYPE = U
NORAD_CAT_ID   = 82560
ELEMENT_SET_NO = 999
REV_AT_EPOCH   = 60552
BSTAR          = .14952E-2
MEAN_MOTION_DOT = .1809E-4
MEAN_MOTION_DDOT = 0

CCSDS_OMM_VERS = 2.0
CREATION_DATE  = 
ORIGINATOR     = 

OBJECT_NAME    = UNKNOWN
OBJECT_ID      = 
CENTER_NAME    = EARTH
REF_FRAME      = TEME
TIME_SYSTEM    = UTC
MEAN_ELEMENT_THEORY = SGP/SGP4

EPOCH          = 2025-11-01T02:52:25.851360
MEAN_MOTION    = 14.35482820
ECCENTRICITY   = .009531
INCLINATION    = 66.7704
RA_OF_ASC_NODE = 257.5574
ARG_OF_PERICENTER = 336.2764
MEAN_ANOMALY   = 23.3956

EPHEMERIS_TYPE = 0
CLASSIFICATION_TYPE = U
NORAD_CAT_ID   = 82597
ELEMENT_SET_NO = 999
REV_AT_EPOCH   = 62300
BSTAR          = .11508E-2
MEAN_MOTION_DOT = .3403E-4
MEAN_MOTION_DDOT = 0

CCSDS_OMM_VERS = 2.0
CREATION_DATE  = 
ORIGINATOR     = 

OBJECT_NAME    = UNKNOWN
OBJECT_ID      = 
CENTER_NAME    = EARTH
REF_FRAME      = TEME
TIME_SYSTEM    = UTC
MEAN_ELEMENT_THEORY = SGP/SGP4

EPOCH          = 2025-10-29T18:19:43.076064
MEAN_MOTION    = 14.49299104
ECCENTRICITY   = .0040091
INCLINATION    = 74.0272
RA_OF_ASC_NODE = 326.1798
ARG_OF_PERICENTER = 280.5269
MEAN_ANOMALY   = 79.1375

EPHEMERIS_TYPE = 0
CLASSIFICATION_TYPE = U
NORAD_CAT_ID   = 82617
ELEMENT_SET_NO = 999
REV_AT_EPOCH   = 63045
BSTAR          = .23959E-3
MEAN_MOTION_DOT = .895E-5
MEAN_MOTION_DDOT = 0

CCSDS_OMM_VERS = 2.0
CREATION_DATE  = 
ORIGINATOR     = 

OBJECT_NAME    = UNKNOWN
OBJECT_ID      = 
CENTER_NAME    = EARTH
REF_FRAME      = TEME
TIME_SYSTEM    = UTC
MEAN_ELEMENT_THEORY = SGP/SGP4

EPOCH          = 2025-10-29T21:34:21.241344
MEAN_MOTION    = 13.16211052
ECCENTRICITY   = .0008319
INCLINATION    = 82.4734
RA_OF_ASC_NODE = 279.9007
ARG_OF_PERICENTER = 208.0711
MEAN_ANOMALY   = 180.5201

EPHEMERIS_TYPE = 0
CLASSIFICATION_TYPE = U
NORAD_CAT_ID   = 82627
ELEMENT_SET_NO = 999
REV_AT_EPOCH   = 57306
BSTAR          = .18072E-2
MEAN_MOTION_DOT = .699E-5
MEAN_MOTION_DDOT = 0

CCSDS_OMM_VERS = 2.0
CREATION_DATE  = 
ORIGINATOR     = 

OBJECT_NAME    = UNKNOWN
OBJECT_ID      = 
CENTER_NAME    = EARTH
REF_FRAME      = TEME
TIME_SYSTEM    = UTC
MEAN_ELEMENT_THEORY = SGP/SGP4

EPOCH          = 2025-10-28T16:55:00.895008
MEAN_MOTION    = 14.06910870
ECCENTRICITY   = .0138374
INCLINATION    = 98.9704
RA_OF_ASC_NODE = 212.5670
ARG_OF_PERICENTER = 3.2692
MEAN_ANOMALY   = 356.9349

EPHEMERIS_TYPE = 0
CLASSIFICATION_TYPE = U
NORAD_CAT_ID   = 82642
ELEMENT_SET_NO = 999
REV_AT_EPOCH   = 60980
BSTAR          = .17268E-2
MEAN_MOTION_DOT = .3096E-4
MEAN_MOTION_DDOT = 0

CCSDS_OMM_VERS = 2.0
CREATION_DATE  = 
ORIGINATOR     = 

OBJECT_NAME    = UNKNOWN
OBJECT_ID      = 
CENTER_NAME    = EARTH
REF_FRAME      = TEME
TIME_SYSTEM    = UTC
MEAN_ELEMENT_THEORY = SGP/SGP4

EPOCH          = 2025-10-30T10:16:11.937216
MEAN_MOTION    = 14.19950345
ECCENTRICITY   = .021194
INCLINATION    = 98.1777
RA_OF_ASC_NODE = 15.6224
ARG_OF_PERICENTER = 162.4940
MEAN_ANOMALY   = 198.3691

EPHEMERIS_TYPE = 0
CLASSIFICATION_TYPE = U
NORAD_CAT_ID   = 82683
ELEMENT_SET_NO = 999
REV_AT_EPOCH   = 45612
BSTAR          = .95653E-3
MEAN_MOTION_DOT = .2506E-4
MEAN_MOTION_DDOT = 0

CCSDS_OMM_VERS = 2.0
CREATION_DATE  = 
ORIGINATOR     = 

OBJECT_NAME    = UNKNOWN
OBJECT_ID      = 
CENTER_NAME    = EARTH
REF_FRAME      = TEME
TIME_SYSTEM    = UTC
MEAN_ELEMENT_THEORY = SGP/SGP4

EPOCH          = 2025-10-25T15:07:01.125696
MEAN_MOTION    = 13.69135328
ECCENTRICITY   = .003806
INCLINATION    = 100.5306
RA_OF_ASC_NODE = 257.7353
ARG_OF_PERICENTER = 140.4369
MEAN_ANOMALY   = 219.9562

EPHEMERIS_TYPE = 0
CLASSIFICATION_TYPE = U
NORAD_CAT_ID   = 82693
ELEMENT_SET_NO = 999
REV_AT_EPOCH   = 54717
BSTAR          = .40035E-2
MEAN_MOTION_DOT = .3434E-4
MEAN_MOTION_DDOT = 0

CCSDS_OMM_VERS = 2.0
CREATION_DATE  = 
ORIGINATOR     = 

OBJECT_NAME    = UNKNOWN
OBJECT_ID      = 
CENTER_NAME    = EARTH
REF_FRAME      = TEME
TIME_SYSTEM    = UTC
MEAN_ELEMENT_THEORY = SGP/SGP4

EPOCH          = 2025-10-31T14:32:14.574336
MEAN_MOTION    = 13.29243009
ECCENTRICITY   = .06853
INCLINATION    = 61.6124
RA_OF_ASC_NODE = 263.2711
ARG_OF_PERICENTER = 273.8851
MEAN_ANOMALY   = 78.4129

EPHEMERIS_TYPE = 0
CLASSIFICATION_TYPE = U
NORAD_CAT_ID   = 82698
ELEMENT_SET_NO = 999
REV_AT_EPOCH   = 53277
BSTAR          = .11704E-2
MEAN_MOTION_DOT = .1918E-4
MEAN_MOTION_DDOT = 0

CCSDS_OMM_VERS = 2.0
CREATION_DATE  = 
ORIGINATOR     = 

OBJECT_NAME    = UNKNOWN
OBJECT_ID      = 
CENTER_NAME    = EARTH
REF_FRAME      = TEME
TIME_SYSTEM    = UTC
MEAN_ELEMENT_THEORY = SGP/SGP4

EPOCH          = 2025-10-23T11:35:19.544640
MEAN_MOTION    = 12.90441701
ECCENTRICITY   = .0061886
INCLINATION    = 102.1689
RA_OF_ASC_NODE = 134.7870
ARG_OF_PERICENTER = 26.2431
MEAN_ANOMALY   = 334.1775

EPHEMERIS_TYPE = 0
CLASSIFICATION_TYPE = U
NORAD_CAT_ID   = 82708
ELEMENT_SET_NO = 999
REV_AT_EPOCH   = 51703
BSTAR          = .48438E-2
MEAN_MOTION_DOT = .1233E-4
MEAN_MOTION_DDOT = 0

CCSDS_OMM_VERS = 2.0
CREATION_DATE  = 
ORIGINATOR     = 

OBJECT_NAME    = UNKNOWN
OBJECT_ID      = 
CENTER_NAME    = EARTH
REF_FRAME      = TEME
TIME_SYSTEM    = UTC
MEAN_ELEMENT_THEORY = SGP/SGP4

EPOCH          = 2025-11-02T11:55:03.203904
MEAN_MOTION    = 12.17693753
ECCENTRICITY   = .0828084
INCLINATION    = 67.9677
RA_OF_ASC_NODE = 215.4580
ARG_OF_PERICENTER = 38.4771
MEAN_ANOMALY   = 327.2389

EPHEMERIS_TYPE = 0
CLASSIFICATION_TYPE = U
NORAD_CAT_ID   = 82729
ELEMENT_SET_NO = 999
REV_AT_EPOCH   = 53030
BSTAR          = .443E-2
MEAN_MOTION_DOT = .1279E-4
MEAN_MOTION_DDOT = 0

